ONEWEB-0574             
1 56063U 23043T   23358.71140988 -.00000002  00000+0 -37561-4 0  9990
2 56063  87.9239  64.2340 0001967 104.1298 256.0055 13.21827409 38659
ONEWEB-0575             
1 56064U 23043U   23358.65284516  .00000098  00000+0  22289-3 0  9993
2 56064  87.9060  49.0026 0001236  86.6209 273.5063 13.16597988 39811
ONEWEB-0576             
1 56065U 23043V   23358.70987286  .00001802  00000+0  46793-2 0  9993
2 56065  87.9060  48.9934 0001761  82.8596 277.2735 13.16591669 39815
ONEWEB-0577             
1 56066U 23043W   23358.64020022 -.00000130  00000+0 -37320-3 0  9995
2 56066  87.9061  49.0049 0000717  48.7552 311.3641 13.16600913 39830
ONEWEB-0578             
1 56067U 23043X   23358.69880140  .00000888  00000+0  21174-2 0  9993
2 56067  87.9237  64.2305 0002009  91.1888 268.9476 13.21822113 38612
ONEWEB-0579             
1 56068U 23043Y   23358.68933694 -.00000001  00000+0 -34723-4 0  9991
2 56068  87.9239  64.2340 0001631 116.5612 243.5689 13.21826136 38626
ONEWEB-0581             
1 56069U 23043Z   23359.17850753  .00000020  00000+0  19994-4 0  9993
2 56069  87.9059  48.9274 0001183 107.5279 252.5981 13.16600734 40786
ONEWEB-0609             
1 56070U 23043AA  23358.72125633 -.00000121  00000+0 -35528-3 0  9991
2 56070  87.9002  79.4672 0001863 110.0433 250.0898 13.15549228 37384
